{"type": "FeatureCollection", "name": "klamath_six_rivers_unified", "crs": {"type": "name", "properties": {"name": "urn:ogc:def:crs:OGC:1.3:CRS84"}}, "features": [{"type": "Feature", "properties": {"id": "klamath-six-rivers-unified-region", "name": "Klamath & Six Rivers Region", "description": "Unified watershed boundary combining the Klamath River basin (incl. Trinity) with the Smith, Mad-Redwood, and Eel River (Upper, Middle Fork, South Fork, Lower) HUC8 subbasins.", "component_basins": ["Klamath (incl. Trinity)", "Middle Fork Eel", "Mad-Redwood", "Lower Eel", "Smith", "South Fork Eel", "Upper Eel"], "source": "USGS Watershed Boundary Dataset (WBD) HUC8, California region 18, dissolved union; Klamath basin from USFWS Region 8 R8_FAC_Klamath_Basin_WFL1. Interior seam slivers from combining the two source vintages removed.", "fill_color": "#2f6d4f", "fill_opacity": 0.22, "stroke_color": "#c98a2c", "stroke_width": 2.5}, "geometry": {"type": "Polygon", "coordinates": [[[-122.98973428932749, 40.14497805018675], [-122.98741782058107, 40.14529908247795], [-122.97820281330371, 40.14120036581767], [-122.96857497061035, 40.13895436582112], [-122.97134090914773, 40.13584548457595], [-122.97361502893585, 40.13032190854284], [-122.97150340602246, 40.12718741271436], [-122.97226762164627, 40.12302926376253], [-122.9694896799839, 40.118699504394215], [-122.9709521247733, 40.11607804918998], [-122.96567616957316, 40.11143554711384], [-122.96601563623932, 40.1095526179501], [-122.96143119874642, 40.09994185546503], [-122.96379993103443, 40.09491844818115], [-122.96167489666271, 40.09013748152188], [-122.96728014665399, 40.08900510131531], [-122.96904535498459, 40.08272535757504], [-122.97338534872785, 40.077443478416626], [-122.96803350186116, 40.07376202946398], [-122.96770249040333, 40.068823104471676], [-122.96154509041293, 40.06687008051637], [-122.95288384459303, 40.0598427544856], [-122.94909807376558, 40.05010979616736], [-122.95424254563255, 40.045307233674805], [-122.95314993625925, 40.04207520034652], [-122.95369234771675, 40.037697518061634], [-122.9512504706372, 40.035781942022936], [-122.94993615605591, 40.032415637861504], [-122.95051093313839, 40.0273306837027], [-122.95639576750426, 40.02008861704729], [-122.95474193209014, 40.01509815455506], [-122.95110925084578, 40.01468130559738], [-122.94947669980667, 40.01251025872574], [-122.95065951126315, 40.00156558686774], [-122.9521098675109, 39.99830928999779], [-122.94826086022522, 39.99561900250194], [-122.94431469564796, 39.995377180627315], [-122.94186797690179, 39.99242444729856], [-122.93925906857248, 39.99167684625809], [-122.93789235294963, 39.98819284001348], [-122.93518679670382, 39.98626997647477], [-122.93728595503387, 39.98164740564863], [-122.93453220399653, 39.979860849401405], [-122.93542080295344, 39.97734494836362], [-122.9273065290077, 39.97115450670657], [-122.92612775192623, 39.96882312233521], [-122.92712087900799, 39.96391507963449], [-122.9258004810934, 39.96336881401032], [-122.92484497796988, 39.96007071818212], [-122.92751561025739, 39.95624214422975], [-122.92650604567564, 39.95135744319566], [-122.92709268004973, 39.944961411955546], [-122.9236956883883, 39.943880766123925], [-122.91771188110596, 39.93785215154992], [-122.91008258945112, 39.9358567744697], [-122.91345212173758, 39.93176253905938], [-122.92053999672657, 39.9292016067717], [-122.92094157589258, 39.91603714429215], [-122.92955828942087, 39.912063520339984], [-122.94878127793271, 39.90855308076209], [-122.95133253730376, 39.90599605055775], [-122.94758599043456, 39.90047790889963], [-122.94797852064232, 39.8923350162039], [-122.9499305018893, 39.88852134329318], [-122.94997280918085, 39.87863332768353], [-122.95357606125862, 39.87257484540129], [-122.95080529147123, 39.86840746311606], [-122.9521777643858, 39.86374130270667], [-122.95577924042186, 39.85894072771407], [-122.95427274042419, 39.85447630480434], [-122.95799588312673, 39.85056846522707], [-122.95861275291747, 39.84619953085888], [-122.96027608937322, 39.84513758815217], [-122.95750946854417, 39.84249278294794], [-122.95642346854584, 39.839394738161104], [-122.95140646022031, 39.83739077670589], [-122.94676004460251, 39.83300604233767], [-122.94764324460118, 39.82518792464151], [-122.9441274477316, 39.81233575382811], [-122.9447099018974, 39.807804524668484], [-122.94361216335739, 39.80167981738629], [-122.93615830816066, 39.79747609760119], [-122.93565500503644, 39.7941647226063], [-122.92863054150564, 39.78715366115887], [-122.91767667693932, 39.78323711949827], [-122.91120549257437, 39.77086869764247], [-122.90474935404274, 39.76197634453126], [-122.89860419884394, 39.75726374037191], [-122.89482583739147, 39.75248533621266], [-122.8847558196988, 39.74841766746897], [-122.87956906449847, 39.74825007788593], [-122.87757939575158, 39.74538106955703], [-122.8711088426366, 39.74743645809548], [-122.86981495826365, 39.74472251851637], [-122.8676094124337, 39.74350259039329], [-122.86664465410189, 39.73931433414975], [-122.8627970718162, 39.740291092481584], [-122.86031057077838, 39.73950356019117], [-122.85699487182518, 39.73302005915957], [-122.8469889062157, 39.7339677247831], [-122.82082506042298, 39.729615157081525], [-122.81774809480277, 39.72718902062695], [-122.80720362919413, 39.726603851877826], [-122.80634875523714, 39.725344410213154], [-122.8076817271101, 39.724764963339055], [-122.81180592189531, 39.71555977272834], [-122.81354366147599, 39.714182810230454], [-122.80980647294012, 39.710159195653375], [-122.81028132606434, 39.70304470608107], [-122.80717201461084, 39.700212414418786], [-122.79851321045766, 39.69696472379883], [-122.79507116358798, 39.69440206859451], [-122.78193197923338, 39.69092871547491], [-122.77928023548748, 39.68789362277124], [-122.782604127149, 39.68317890819526], [-122.78859262088969, 39.68285178527907], [-122.80104407191203, 39.675420306123954], [-122.80667892190331, 39.67609265612293], [-122.80985126044004, 39.67469106341673], [-122.81175823022875, 39.66219502489446], [-122.80661952607005, 39.65972462593999], [-122.8071649010692, 39.653307642616596], [-122.80359903649139, 39.6503896842878], [-122.80275342503438, 39.64718070408446], [-122.79559211775381, 39.64631537908582], [-122.7817068948587, 39.639082137430364], [-122.77269668237273, 39.63852425826457], [-122.76739382821427, 39.63521010410301], [-122.75924430531023, 39.63305512806471], [-122.75764753552107, 39.62759776140649], [-122.75897038135236, 39.624765710369275], [-122.75747592302133, 39.6231964041217], [-122.7416614001292, 39.62132936662459], [-122.73593747722146, 39.61898223641987], [-122.73546348243048, 39.61578525517484], [-122.73173427097794, 39.61634068538234], [-122.72772780535917, 39.61526606559232], [-122.72205707307631, 39.609988791642195], [-122.7217448032851, 39.60704279685507], [-122.72313292619964, 39.6043045176927], [-122.72179006891008, 39.60079207811481], [-122.72427506994785, 39.597179098953745], [-122.72191229703486, 39.590483973964126], [-122.69796435123868, 39.58445534376517], [-122.70071230956779, 39.581047206270455], [-122.70146823248325, 39.57473563128025], [-122.70417388039573, 39.57162495420175], [-122.70747219080727, 39.562166280258054], [-122.69050470437526, 39.5515416104829], [-122.67680135647987, 39.548524497987614], [-122.67124394607185, 39.5458534615334], [-122.66802470128516, 39.53986367195938], [-122.67144108982154, 39.52979204697499], [-122.68441763771807, 39.518947658450145], [-122.69114627416593, 39.52056370948935], [-122.69726228665644, 39.52008630428173], [-122.69938906165316, 39.522947033443984], [-122.71341779600641, 39.52046800011448], [-122.71857414495673, 39.51555144908042], [-122.71682050537612, 39.513572383458495], [-122.71660127725147, 39.511013391795814], [-122.71992787620462, 39.505124674096635], [-122.72295631057489, 39.503024962641575], [-122.72353251890735, 39.49577506577782], [-122.72643758036116, 39.49348341994801], [-122.7341630022242, 39.49120282099324], [-122.73764638138545, 39.48523184600248], [-122.73632471159584, 39.4798793210108], [-122.73951957825756, 39.47533051789287], [-122.74397994700064, 39.47216626789776], [-122.73817409075963, 39.45763625125369], [-122.73962693971572, 39.45599848875622], [-122.73937000429942, 39.448284287726494], [-122.74085246679715, 39.44438541377423], [-122.7385670480507, 39.44209544606946], [-122.74441416679161, 39.43572685232937], [-122.74224186783664, 39.43128135129456], [-122.75612468344008, 39.43185856066867], [-122.763470819887, 39.429876188796754], [-122.76764935738055, 39.43069183567047], [-122.776173255284, 39.429901320046724], [-122.77722481778233, 39.432092427334965], [-122.77610220632573, 39.43556316899628], [-122.77766869278167, 39.438612655449845], [-122.78243198131594, 39.44263498356861], [-122.78407900735505, 39.44260157002702], [-122.79287982296637, 39.43413486483183], [-122.79801569275008, 39.43153522837753], [-122.79877611149891, 39.428873154423286], [-122.79591746150334, 39.425055508595904], [-122.80287411878419, 39.41873737318906], [-122.80348571461656, 39.410328631535435], [-122.80971877919023, 39.40990117528611], [-122.81096527814663, 39.40877641487117], [-122.80891117919151, 39.40189360759018], [-122.80618687815405, 39.40002894300977], [-122.80282588753425, 39.394109928435626], [-122.8031140729505, 39.391957794063956], [-122.80154208024459, 39.3908240878157], [-122.7905547313033, 39.38683210553023], [-122.78746172193314, 39.3873544680294], [-122.78338202714781, 39.38094132637269], [-122.7814347219425, 39.37944448262505], [-122.77895271673799, 39.3795263555416], [-122.77428099278694, 39.37497509721533], [-122.76976530737727, 39.37509385242345], [-122.768012629255, 39.37390013888364], [-122.76613505529957, 39.37673130346258], [-122.760051417809, 39.37819047741863], [-122.75563330844085, 39.37574941908912], [-122.75213829386297, 39.37058073784715], [-122.74630807095531, 39.3694969607655], [-122.74290711366893, 39.367460687851974], [-122.74172775221246, 39.36406590348224], [-122.74320147096017, 39.36130998056984], [-122.74157555117102, 39.35997547848859], [-122.74208377929523, 39.358223714949645], [-122.74633665845528, 39.3558147149534], [-122.75171332719697, 39.34886341079749], [-122.75176426365522, 39.34628285975987], [-122.76128094384876, 39.34466348267904], [-122.76540583863402, 39.342578128515584], [-122.76453007509372, 39.33571082852626], [-122.7683948563377, 39.32992426186854], [-122.76828419487958, 39.325460626458835], [-122.77263651570615, 39.323716302503215], [-122.77277680945593, 39.319107080635376], [-122.7754002615352, 39.31550896814093], [-122.77501507195245, 39.31182387231331], [-122.77015394487665, 39.309671931691696], [-122.76580097821676, 39.30088449003864], [-122.75871023968608, 39.29436962234041], [-122.75686846260561, 39.287865397350515], [-122.7580208605205, 39.285287110896206], [-122.75703739073037, 39.28431122235605], [-122.74040130846453, 39.27609503382712], [-122.73671747617857, 39.272775690082256], [-122.73310888868417, 39.272000706750134], [-122.72893057514898, 39.27360993903932], [-122.7230814616164, 39.267521818215414], [-122.72304348765812, 39.265233188010654], [-122.71748885954173, 39.2640999223874], [-122.71614952621047, 39.262270704681896], [-122.71703391058412, 39.260410376559776], [-122.71264000538258, 39.25890232552047], [-122.71171373038402, 39.255674167192126], [-122.71575785537777, 39.25456418594388], [-122.72503355640504, 39.244860143250605], [-122.7393252678412, 39.24524602554169], [-122.75051405428212, 39.242154209921466], [-122.76071321155797, 39.244391116168], [-122.76431499176073, 39.24405761304354], [-122.76221074280568, 39.24597668908223], [-122.76360888863684, 39.24920540991053], [-122.76937040008619, 39.24965634845148], [-122.77240870841484, 39.25371482136188], [-122.78306352610662, 39.25620629739967], [-122.79075990317801, 39.253359696362395], [-122.79398327817302, 39.254034963028005], [-122.79519613546279, 39.25692213073188], [-122.8041793583655, 39.25849573802111], [-122.80761061565187, 39.257722378647316], [-122.80973364377354, 39.26011179322694], [-122.81236553647778, 39.2596413130193], [-122.81569467188928, 39.25599469844167], [-122.82461053437544, 39.25331820677917], [-122.82579489687362, 39.249241992202144], [-122.82973596561749, 39.24453681408443], [-122.83299065311246, 39.24519887866677], [-122.83540468019203, 39.24386326825214], [-122.83911249685298, 39.2449153411672], [-122.84715272184047, 39.240616946382204], [-122.85123039162579, 39.2445419088761], [-122.85335934891418, 39.24460547345933], [-122.85426062495446, 39.249797054701276], [-122.85894459994716, 39.25422914219439], [-122.86961722493061, 39.25726051302303], [-122.8718526915938, 39.25924721093662], [-122.8754234832549, 39.25886154427053], [-122.87998288220615, 39.26637714113389], [-122.88509488428156, 39.26331664530528], [-122.88700261657027, 39.263839982804484], [-122.88755635094441, 39.270268228627856], [-122.88943164781654, 39.272643462999156], [-122.89898994676003, 39.27832902653199], [-122.90081106446553, 39.27716992340879], [-122.90704271341417, 39.278660180698125], [-122.90638210924851, 39.28074124527825], [-122.91135984049083, 39.283240617149374], [-122.9114818134073, 39.285894437978584], [-122.91371894777882, 39.28822117026664], [-122.92478795296995, 39.293852796299575], [-122.92491023942813, 39.29670136712849], [-122.92751016025738, 39.29743339421066], [-122.93115598421008, 39.302085705661796], [-122.93550913316164, 39.30483929940749], [-122.93610255920242, 39.30701859732079], [-122.93962720503026, 39.308043011902555], [-122.94319615606639, 39.31253664627053], [-122.95103005501255, 39.31429311918447], [-122.95361672688352, 39.31274820772859], [-122.95695444146168, 39.31283469939507], [-122.95856344041755, 39.30983541085806], [-122.96322525395198, 39.30769984002808], [-122.97784519351262, 39.30576802857274], [-122.98791995391366, 39.30712071502899], [-122.99418721848724, 39.31139392648066], [-122.99904491118804, 39.311479278563866], [-123.00380870493063, 39.31354862960234], [-123.00713103617551, 39.315398770224476], [-123.0073506434668, 39.31749251397122], [-123.01014060492082, 39.32068162854961], [-123.01438744553923, 39.31928128688509], [-123.02447421010692, 39.319657188967824], [-123.02832162676759, 39.32423313375239], [-123.03622185592201, 39.32638555874905], [-123.03623943404699, 39.330086134785006], [-123.03884083404296, 39.32916015457806], [-123.04439083611766, 39.33141016915795], [-123.04561259965743, 39.330119360826586], [-123.05425024547736, 39.3316494493659], [-123.06052364963426, 39.335821681651055], [-123.06430572462841, 39.340506237893806], [-123.06761336316492, 39.34040697956061], [-123.07666426106755, 39.34495713684521], [-123.08116719647722, 39.35123394725218], [-123.07927684127185, 39.35570130766189], [-123.0813950579352, 39.3576676430755], [-123.08298802876607, 39.362714351400996], [-123.08574549647011, 39.364406374315024], [-123.08802079229991, 39.36822048889246], [-123.10462817664916, 39.373271676384604], [-123.10892568080914, 39.372258170136206], [-123.11333638184396, 39.37316085867644], [-123.11673626829702, 39.375997961797054], [-123.12223136620514, 39.378047880543875], [-123.12846160057046, 39.378206061793605], [-123.1357143849342, 39.38390746595144], [-123.13563455472604, 39.386326731572694], [-123.13748596409818, 39.38919350448492], [-123.14515964429455, 39.39055092219115], [-123.16389632343214, 39.39912240342784], [-123.1650476192637, 39.39863539613691], [-123.16510754009693, 39.396118989890795], [-123.16747620467657, 39.395298121142105], [-123.16804338175905, 39.391541977397935], [-123.1700770838392, 39.38843512844443], [-123.16828150050867, 39.387875720111936], [-123.16747654738492, 39.38166908991326], [-123.16980723592297, 39.37897055866745], [-123.16968389529819, 39.37561137325599], [-123.17168714633675, 39.373730768050564], [-123.177094925495, 39.377580188877914], [-123.18038374944825, 39.37647663575467], [-123.19152019526427, 39.38041854512352], [-123.19526063484182, 39.37733492325333], [-123.20183763274827, 39.37966018054135], [-123.20290061607994, 39.3772314940868], [-123.20074066712499, 39.37202630138654], [-123.21477150668653, 39.36794958785123], [-123.21611235668445, 39.37051452638889], [-123.21549878793542, 39.374347638882966], [-123.22331912958992, 39.380451274290124], [-123.22690721916769, 39.38045710658179], [-123.22837683895705, 39.383760529493316], [-123.23148288374392, 39.38378578365996], [-123.23443175978099, 39.386202913864565], [-123.23821961290014, 39.386782786780316], [-123.24828902225948, 39.38553551074057], [-123.24666784830367, 39.37856477429307], [-123.24904424829998, 39.37572405971417], [-123.25095216183871, 39.37538785554801], [-123.2537020743344, 39.37124336388774], [-123.25216764725349, 39.37014820138944], [-123.25209497850358, 39.368245138892405], [-123.24884693163364, 39.36650219514513], [-123.24987489517372, 39.364047528482274], [-123.24804812330154, 39.359325324322924], [-123.25449755766653, 39.35917089828149], [-123.25498228370742, 39.3577219462004], [-123.26032247015746, 39.35478955037166], [-123.26090684098989, 39.35265510454161], [-123.2714078315986, 39.34951441079647], [-123.26917912014375, 39.34750140350798], [-123.27173555659812, 39.34492802851196], [-123.2703502805586, 39.33977084101997], [-123.27257315451345, 39.33609971706733], [-123.2694842461849, 39.332709205614265], [-123.26888225243584, 39.33013038478492], [-123.26933757014348, 39.328775359787016], [-123.27134358264038, 39.32864296499554], [-123.27070690868305, 39.326458191040615], [-123.27407821492778, 39.32557095875035], [-123.28115704616681, 39.327316795205945], [-123.28987378469492, 39.327333735830905], [-123.29527646072825, 39.33319588894682], [-123.30841005549951, 39.33879485768813], [-123.31027884924663, 39.341063541017945], [-123.31483498048954, 39.33729595769046], [-123.32120818985464, 39.3425283660157], [-123.33094688150618, 39.34606483267686], [-123.33465772837542, 39.351482867043444], [-123.35097394501679, 39.35390004412301], [-123.3571720554238, 39.35623146703608], [-123.36069395541836, 39.35960551598919], [-123.36552478561919, 39.355803009745046], [-123.37030561686174, 39.356956810784936], [-123.37709999810124, 39.35372891183164], [-123.38115666267828, 39.355440084745624], [-123.3920872439113, 39.356463954535684], [-123.40208518868741, 39.35547184516224], [-123.40675835743019, 39.35872470349051], [-123.41572717929125, 39.35587097953663], [-123.4225334449057, 39.36044482848786], [-123.42689567823226, 39.36074824202905], [-123.43580351363511, 39.364368364940105], [-123.4435675782064, 39.36156477119448], [-123.44564341778647, 39.36691128889447], [-123.44191622925064, 39.3708340982634], [-123.43507404488622, 39.371447450345784], [-123.43428572509578, 39.374362683674576], [-123.43112535947569, 39.376954615962234], [-123.43470849488682, 39.37884449304261], [-123.43515806051113, 39.38232988782892], [-123.43831155633956, 39.38388915240978], [-123.43882461988039, 39.386965549280035], [-123.44210799800032, 39.388192118028144], [-123.441441083418, 39.38945919510951], [-123.44246721466641, 39.3911507346902], [-123.4394355719628, 39.392519568021385], [-123.43724071050787, 39.3969218013479], [-123.43312814697259, 39.400092150301305], [-123.42320263032133, 39.39770177843002], [-123.42154519490725, 39.401322590924394], [-123.41584615949944, 39.40366781279579], [-123.41541798241673, 39.409200108620496], [-123.41063384179915, 39.413266172155886], [-123.41051528659102, 39.41551465444405], [-123.40855729805241, 39.41681458152539], [-123.41053866263263, 39.419499780479555], [-123.40947119492597, 39.42255048359982], [-123.41044033554948, 39.42519692838738], [-123.41000749388348, 39.42721660130087], [-123.40771164597038, 39.42892349088157], [-123.40823555534456, 39.431208034628014], [-123.40657738763878, 39.43496912628888], [-123.40925749805132, 39.436965093994104], [-123.40973936575887, 39.44048876586362], [-123.41207300846361, 39.4423453856524], [-123.4191222876193, 39.4448620356485], [-123.42299731469666, 39.44818176793501], [-123.42686594698233, 39.447695036685786], [-123.43045162822676, 39.45210128563724], [-123.43400030738792, 39.458436283544074], [-123.43371878342998, 39.46086420229034], [-123.43163598864157, 39.461882739788734], [-123.43711728654972, 39.4641469147852], [-123.43982881467053, 39.468198500195626], [-123.43963323029584, 39.47116257310768], [-123.4436684136229, 39.4811484783005], [-123.44245851049976, 39.48191495954933], [-123.44302065841555, 39.484816947044806], [-123.44603962299419, 39.492540386616156], [-123.44892220215638, 39.49724546160883], [-123.4509878865282, 39.49835385535715], [-123.45190093548513, 39.503112039724726], [-123.46453767609052, 39.50831380430003], [-123.4666770031705, 39.50715467617681], [-123.4720865281621, 39.51117688346221], [-123.48475226460079, 39.50954131575645], [-123.48804680417902, 39.50748842305131], [-123.49542265729258, 39.512788528251406], [-123.5045408854034, 39.51481120012323], [-123.50149236040812, 39.52651222198011], [-123.50689283227473, 39.53082900947339], [-123.50550749581856, 39.53453731675933], [-123.5074240489406, 39.53711486571365], [-123.5070265906079, 39.541126442790755], [-123.50632571248394, 39.54388626466147], [-123.50034406040993, 39.547412374030955], [-123.50353225519666, 39.55164278027439], [-123.5060137051928, 39.55292305318909], [-123.50395398957096, 39.55569635839311], [-123.50306155415569, 39.55981637817837], [-123.509310741646, 39.56108020525977], [-123.5163688062184, 39.565973549002194], [-123.51667185725955, 39.56935595316361], [-123.51478515934582, 39.574300659405935], [-123.51802585517413, 39.57724805523469], [-123.51626996559355, 39.58925493334101], [-123.52166942704349, 39.59462279166604], [-123.52058108017019, 39.596100972913746], [-123.52160441766858, 39.599042986450854], [-123.52011779371259, 39.60240633748731], [-123.52128013016909, 39.60554517706572], [-123.51956228329675, 39.60729853956303], [-123.5225169791255, 39.60647238748095], [-123.53543547389711, 39.60836483851972], [-123.54133164159629, 39.607574519770935], [-123.54763869991984, 39.611747687472814], [-123.55100623741464, 39.60815444372838], [-123.55542866553276, 39.609134038518505], [-123.56075204989946, 39.607519935396], [-123.56442567176879, 39.607877389562134], [-123.57213021446518, 39.604837763525154], [-123.57423123529526, 39.60275104998675], [-123.58164416445038, 39.603627269777064], [-123.58411005923824, 39.60866505622755], [-123.58910948839713, 39.60890266768553], [-123.59039187277017, 39.61313932705394], [-123.59581773422008, 39.619765926002], [-123.60190892275227, 39.62278649370563], [-123.60716787899412, 39.62305931662189], [-123.60666075711987, 39.6264450187], [-123.61438354564956, 39.63060125515187], [-123.61532746856477, 39.63307284473137], [-123.62075254355636, 39.63735925201638], [-123.62735050187945, 39.63529750826956], [-123.63621822999067, 39.63736313014135], [-123.64048394560905, 39.64206771659241], [-123.64621889247513, 39.64463761242172], [-123.64917862684558, 39.647985759291544], [-123.65531804454434, 39.650465382204345], [-123.65962715078768, 39.65440601657326], [-123.6783540174253, 39.65325999261671], [-123.68448259137409, 39.6544873426148], [-123.68860230803438, 39.65708965719409], [-123.69125753303024, 39.66047604364718], [-123.68718125386994, 39.667191978011715], [-123.68810849345181, 39.669300324883466], [-123.69195951948751, 39.67063228321473], [-123.69259658302815, 39.672491512378485], [-123.69096815803067, 39.68034541236631], [-123.69700376739632, 39.68315606132029], [-123.70212646634673, 39.68227466132163], [-123.70874759029476, 39.683885484235816], [-123.71311870591296, 39.687060737355864], [-123.71674843507401, 39.68738860818871], [-123.72180664235782, 39.68511598527556], [-123.72358565693838, 39.68635808423198], [-123.72304387256423, 39.68873795297827], [-123.72416619860417, 39.69059029568376], [-123.73031253192795, 39.696384792549736], [-123.72901219026329, 39.697443624839764], [-123.72229175694042, 39.69734803733991], [-123.71677184549065, 39.69539775505126], [-123.71583637674212, 39.70096525295929], [-123.70535787259172, 39.7057243446186], [-123.7090650965443, 39.707881595656886], [-123.71057928612527, 39.71198314773386], [-123.72234966839864, 39.719974683138105], [-123.73092886630201, 39.721565306052355], [-123.73723861837556, 39.72698314250226], [-123.74171092982692, 39.72786427479258], [-123.74518817357153, 39.72679244666921], [-123.74340769544932, 39.73397587582474], [-123.74462151211407, 39.73729170811123], [-123.74673490690247, 39.73865357165079], [-123.75085948085439, 39.73795123727689], [-123.7544826423071, 39.74191607685407], [-123.75784686313523, 39.74289124247758], [-123.75784623292691, 39.744902904974424], [-123.76190227562893, 39.74489384143277], [-123.76323292666854, 39.748103143511116], [-123.76196624958715, 39.75070098517375], [-123.76435210479178, 39.753326687253036], [-123.76878229957657, 39.75431200495984], [-123.7698592349916, 39.75645813099817], [-123.77197941102997, 39.75704859558061], [-123.77209159019645, 39.762862672654876], [-123.77802736414554, 39.76827946847982], [-123.7814719901819, 39.76820384452162], [-123.78899036412855, 39.77273415909792], [-123.79117601829182, 39.778476694505684], [-123.79412855474555, 39.781098585126585], [-123.78976479016899, 39.79169266636012], [-123.79046336204294, 39.79527387156293], [-123.78930507662807, 39.79710097781009], [-123.78537507975915, 39.798492052807944], [-123.7861484912163, 39.80222945801046], [-123.78895670475362, 39.80630438925414], [-123.7944016589118, 39.810395452789464], [-123.80291478077362, 39.812995705910396], [-123.804612887021, 39.81460008194961], [-123.80450007556283, 39.81667562569635], [-123.80260682139908, 39.81772078923643], [-123.79088284537562, 39.8140754142421], [-123.7886478516291, 39.818971015276134], [-123.78583800892511, 39.819234974650726], [-123.78380310059492, 39.821820124646706], [-123.77813104747872, 39.82376497776869], [-123.77839045685334, 39.826649485055896], [-123.77610957456523, 39.82757848088778], [-123.7762739141483, 39.83210380588076], [-123.77457603081757, 39.83445913087712], [-123.77195523186333, 39.83545617358391], [-123.77316325061145, 39.84403688607057], [-123.76733575270384, 39.85232359126604], [-123.76796594124454, 39.854919396470336], [-123.77303276102833, 39.85706025480033], [-123.77958694955981, 39.85747884542468], [-123.78128770997381, 39.86109814958576], [-123.78409112663616, 39.86286016520802], [-123.78423145684428, 39.865092765204565], [-123.78787812246361, 39.866878501660096], [-123.78834196412953, 39.869472955822744], [-123.79264350891452, 39.86932556311467], [-123.80040806827748, 39.87269635477605], [-123.8019138224418, 39.87369941206617], [-123.80196995681672, 39.87632613602045], [-123.80500943806203, 39.87851894226702], [-123.81572340887874, 39.88168123497047], [-123.81754002762591, 39.892974905786275], [-123.8216276359529, 39.89341648286893], [-123.8272720765691, 39.89907839848513], [-123.82802940781795, 39.90238871931331], [-123.83464806197435, 39.90490341722608], [-123.8370464380123, 39.903655292227995], [-123.8431200109195, 39.90423927035209], [-123.84745723591277, 39.909482662010646], [-123.85053267028303, 39.91023883388448], [-123.85059044736624, 39.91227305679797], [-123.85402496611096, 39.915663998459365], [-123.85724061818928, 39.91717252658202], [-123.85663362652355, 39.92081927136803], [-123.86315582026344, 39.92581981615194], [-123.86383503588735, 39.92971030989594], [-123.87305154316476, 39.92579407448534], [-123.8781858858651, 39.92533396406935], [-123.8809542327358, 39.9232664817809], [-123.88542704002055, 39.924571655737225], [-123.88480627231314, 39.92037809428541], [-123.89168374834412, 39.920250173452246], [-123.89683410458616, 39.92255788074033], [-123.90029517228913, 39.921206867200794], [-123.90863996810947, 39.9241512994879], [-123.91814380038642, 39.92455795261225], [-123.9253380326669, 39.929060183855256], [-123.93082850349174, 39.930370524478235], [-123.93425231181976, 39.9334879307234], [-123.94079662951793, 39.93320929843213], [-123.94286620659801, 39.93588599946963], [-123.94616305555127, 39.936822189051554], [-123.95029695241982, 39.940324553629466], [-123.95080050554407, 39.94369580362422], [-123.94626040138445, 39.945308219246726], [-123.94145176805858, 39.94963592236496], [-123.94750164200752, 39.955921644230216], [-123.95285071491588, 39.95672045777064], [-123.95440456387178, 39.958784233809126], [-123.96216919406805, 39.96169944838795], [-123.96453676489773, 39.965361446298914], [-123.95996477323814, 39.965522071298665], [-123.95177831595919, 39.96857144525228], [-123.94614277534293, 39.964550547341844], [-123.94215216597416, 39.965019125466085], [-123.93602507848368, 39.97034011816618], [-123.93221573473954, 39.97065672129071], [-123.92725872745558, 39.97400609628551], [-123.92291374725403, 39.97119762962319], [-123.92095330246536, 39.96793286087825], [-123.91691743997166, 39.967668024420334], [-123.91407184518442, 39.979859816068085], [-123.91147991706345, 39.98352172022908], [-123.90842410769318, 39.98467427126894], [-123.90917473165035, 39.986699793140815], [-123.90554396915599, 39.990249326468586], [-123.90620145873828, 39.99411138479593], [-123.90399885457504, 39.997694834790366], [-123.90026745458084, 39.99960481603745], [-123.89828750354224, 40.00229862540823], [-123.89864846916669, 40.005952350402595], [-123.90073368791343, 40.00828356081564], [-123.89799134520933, 40.01254821705902], [-123.89287035459233, 40.01630639517816], [-123.89300575980042, 40.018220901425195], [-123.89469195563117, 40.019528968089844], [-123.90653091394609, 40.02289060350125], [-123.90538131498954, 40.02506048266457], [-123.90659073269603, 40.0274100774526], [-123.91287468476958, 40.028285486826235], [-123.91433084830902, 40.03162384932108], [-123.91770239413711, 40.0322294211951], [-123.91731387122104, 40.03621456389726], [-123.92259805142118, 40.03935260139241], [-123.91972979413396, 40.04425390450979], [-123.92869676391172, 40.050004482625866], [-123.93187580869841, 40.05983971802726], [-123.93078843265846, 40.06385881697935], [-123.9357686389007, 40.067017540932795], [-123.93209530661477, 40.07234081800783], [-123.93464220765247, 40.0753587263365], [-123.93894220972913, 40.074531316962805], [-123.9431954576392, 40.076553836751316], [-123.94051348889337, 40.0816050825768], [-123.94423520659592, 40.08513220965466], [-123.94473023784514, 40.08894978673209], [-123.95271182116608, 40.09482913880629], [-123.94841803679776, 40.099723948173676], [-123.95185935762572, 40.10330972837647], [-123.9525194794997, 40.10826560128544], [-123.94668100867545, 40.11129891169736], [-123.95021207116997, 40.12145108980661], [-123.9456268170104, 40.12444343042699], [-123.93688723681566, 40.124131714802445], [-123.9389514388958, 40.12775875646349], [-123.9340529170284, 40.12978865437702], [-123.93459953056919, 40.131835767915504], [-123.93328048161294, 40.133101821038565], [-123.93442208786115, 40.13489917832743], [-123.93220343369791, 40.13894355852949], [-123.9278314212047, 40.140157532485944], [-123.92283954412915, 40.14422392102131], [-123.91462396185022, 40.14300307623148], [-123.90917324206703, 40.15242570434191], [-123.91572653789018, 40.15825828141618], [-123.91577878268174, 40.16214656682678], [-123.92407179308555, 40.17184832722842], [-123.92289644933737, 40.173480540767514], [-123.9249728941258, 40.176479997012905], [-123.9271037191225, 40.177595876177804], [-123.92992988161814, 40.1770067459704], [-123.93222223473958, 40.18116787617225], [-123.93577472952569, 40.1913048834482], [-123.93091519099158, 40.195064332400705], [-123.9343282847363, 40.19936948447736], [-123.93602156910868, 40.20635233863317], [-123.94101633576759, 40.21522206986941], [-123.95512835241232, 40.22041892506968], [-123.96668751593609, 40.21870013340566], [-123.97254001071866, 40.2159719188266], [-123.98403298153414, 40.22080447923577], [-123.98928513881765, 40.220775012569106], [-123.9936960606858, 40.223266203190235], [-123.9910608294399, 40.22613349068581], [-123.99235563047955, 40.22863316984859], [-123.99071693360708, 40.232688942758955], [-123.99440726901804, 40.24462937190708], [-123.98888334923492, 40.24582123440524], [-123.98627627736397, 40.25520753751567], [-123.98953308673396, 40.25564808959831], [-123.99309021277008, 40.258403952094056], [-123.99901350338587, 40.25625556147236], [-124.00616203566648, 40.261307000006184], [-124.01007382836872, 40.26231396250466], [-124.01500876690272, 40.26224016042141], [-124.01882175439681, 40.259313157300994], [-124.02349888251456, 40.26071097188213], [-124.02838263771531, 40.26518396562517], [-124.03323279187441, 40.26740656249672], [-124.03423695958122, 40.270519735408584], [-124.04461753664845, 40.276046029149995], [-124.05269078663588, 40.27721291768984], [-124.05333240225991, 40.27991684581065], [-124.05675190954628, 40.28254314893155], [-124.05433214600833, 40.286368307258954], [-124.05903327725105, 40.29169896454238], [-124.05771079808642, 40.300483330153725], [-124.06270926682868, 40.301738815568456], [-124.06261680953713, 40.30477091348041], [-124.06891946056902, 40.30881574784911], [-124.06733723452982, 40.30993262493075], [-124.06935827515167, 40.31888521658351], [-124.06800812723714, 40.322051406161904], [-124.0692827751518, 40.32297350095217], [-124.07006709910894, 40.3283091842772], [-124.08101930950858, 40.34024041342536], [-124.08282115221414, 40.34532152695914], [-124.08019025013488, 40.34846921341256], [-124.0799694949269, 40.352191411323474], [-124.07427634076907, 40.35659225298332], [-124.07220936889729, 40.35622870402551], [-124.0700345511923, 40.35790224048128], [-124.06467739807562, 40.357017820691], [-124.0611229084978, 40.35878043110489], [-124.05573007933953, 40.35817149152251], [-124.05357715434286, 40.3561396915257], [-124.04873651789205, 40.358862802979786], [-124.04861049080893, 40.36622766859335], [-124.05168188142915, 40.37582925399511], [-124.04956109705745, 40.37976766753064], [-124.0461929918543, 40.382033327943816], [-124.0454897699804, 40.384458533148404], [-124.04331984290047, 40.385000540439194], [-124.04344413352527, 40.38752106647695], [-124.04062809498794, 40.390917834180016], [-124.04106873352896, 40.39504976959029], [-124.04608143560449, 40.40013053729075], [-124.0484160439342, 40.39950780812501], [-124.05392742830065, 40.40391945290986], [-124.06604590536517, 40.40618962478135], [-124.0718614168145, 40.41106131748211], [-124.0755673303504, 40.41750350601376], [-124.08031514388466, 40.417385150805615], [-124.08386373658749, 40.42005611434314], [-124.08816700116415, 40.41941064663581], [-124.09744136885809, 40.42244697371444], [-124.10169659072648, 40.42182615288203], [-124.10621307196948, 40.423351197671366], [-124.11237311258492, 40.42164982892399], [-124.1203793594475, 40.41731251434737], [-124.126931804229, 40.42175577996551], [-124.13212831255424, 40.427187428915374], [-124.13247336567872, 40.43619793306806], [-124.13427206984261, 40.44001839556216], [-124.13797249379519, 40.44497521430446], [-124.14335800628686, 40.44774047367514], [-124.15806198022233, 40.448161288257836], [-124.16248285938212, 40.4468287663849], [-124.16495314166997, 40.447526220550515], [-124.16813303124837, 40.4518882715854], [-124.17948130623074, 40.44928100596445], [-124.19038766142216, 40.453828183040685], [-124.19238788016906, 40.45643200803664], [-124.20326791973548, 40.456740604911204], [-124.20600181243958, 40.458915195532825], [-124.20598247806464, 40.461359255945695], [-124.21032642909955, 40.46364935177547], [-124.21241975930462, 40.467865029893915], [-124.21574786971615, 40.469732176766], [-124.21857461867006, 40.476119014256085], [-124.23025469052698, 40.482074785080215], [-124.23022290406868, 40.484651387159545], [-124.23961574155408, 40.491280602774225], [-124.24073098530238, 40.494470905894275], [-124.25216375820128, 40.49787489026403], [-124.25647281236127, 40.49723822880668], [-124.27310286441877, 40.50104096942579], [-124.2831999300281, 40.50115758609223], [-124.2841029091934, 40.5113807475347], [-124.2787012602434, 40.51431786523847], [-124.27061800192263, 40.515610900653144], [-124.26388827797473, 40.5188530443981], [-124.2666492883871, 40.52280042251698], [-124.26718095088631, 40.526792875635806], [-124.26888764775867, 40.52783429125918], [-124.26741298942761, 40.53278775062648], [-124.27889721232646, 40.538598022492465], [-124.28444896960951, 40.53929367874139], [-124.29159493105675, 40.537199725619644], [-124.29857776437922, 40.54004442249021], [-124.30672950290824, 40.53865003707574], [-124.31252292685758, 40.54662631518835], [-124.31201813831672, 40.552296242262855], [-124.31362600810587, 40.55430738913475], [-124.31608729039374, 40.5552789318416], [-124.32024391851229, 40.55461056100927], [-124.3293770768314, 40.557595367254635], [-124.33455696849006, 40.561458159957], [-124.34172892681227, 40.56261695058021], [-124.34790752055267, 40.56058858079166], [-124.34861095909326, 40.56431614120254], [-124.34764918305308, 40.56902411827855], [-124.34942661950862, 40.57175449535765], [-124.34870981221809, 40.57647819743369], [-124.3285235976661, 40.61495796508228], [-124.3256555674622, 40.619684889033294], [-124.31997937892936, 40.62508139319158], [-124.317632235183, 40.633189406720646], [-124.31101045185994, 40.64514567024372], [-124.36463811219335, 40.67889219831636], [-124.34016324139805, 40.71590472846725], [-124.3091214539462, 40.756523098195885], [-124.31005202790311, 40.76490130234953], [-124.309249507071, 40.77272845546236], [-124.30282623833097, 40.787728757522416], [-124.29680321125699, 40.79505075438607], [-124.28731987377171, 40.80337399187317], [-124.27228212483669, 40.812518165817266], [-124.25916050089876, 40.83097777099698], [-124.2299811405274, 40.87804584175723], [-124.20717569160445, 40.926619512515174], [-124.18795191455092, 40.986290623880905], [-124.18503551872215, 40.99973208427667], [-124.19540331037274, 41.00532335197636], [-124.20482543223306, 41.01296868321447], [-124.2142708832601, 41.026015533194254], [-124.22690544261548, 41.0385641842164], [-124.232366445732, 41.047217356077965], [-124.23514506135268, 41.05478081439958], [-124.24096888217701, 41.081101303942035], [-124.24751422695851, 41.09038589871932], [-124.25152601966062, 41.1012986164107], [-124.25226291549279, 41.1125286216016], [-124.25000928424629, 41.12314061741847], [-124.25152097382727, 41.13837889968647], [-124.24972488633006, 41.1469930965481], [-124.24643642071015, 41.1544395704949], [-124.2354722926022, 41.16771876630759], [-124.22156965512374, 41.176859700668444], [-124.196308480163, 41.186715869403145], [-124.17729574894247, 41.22922616621213], [-124.17775061665009, 41.24666238597672], [-124.17490291665456, 41.263821674491794], [-124.17046013436976, 41.27280658801948], [-124.16208116875777, 41.282659202587524], [-124.16038804063538, 41.28642041404004], [-124.16239159688229, 41.2922045400727], [-124.17947357810579, 41.290750154658326], [-124.1965992426625, 41.29267905465531], [-124.2124816134712, 41.297882981730595], [-124.22604011865849, 41.306008010884625], [-124.23578044156005, 41.31574174524451], [-124.24211071030021, 41.32696259210212], [-124.24465339154625, 41.33900452020839], [-124.24348554467309, 41.35029665248254], [-124.23799761655658, 41.36268432954665], [-124.2291907530286, 41.37291481494742], [-124.21641366138175, 41.38174264514208], [-124.2021213166123, 41.38747092117484], [-124.18525982809678, 41.39052185658676], [-124.16907070520523, 41.39030888887879], [-124.15236109377287, 41.38681633367588], [-124.13781958962875, 41.380415038894114], [-124.13161917505505, 41.41525299300673], [-124.13071248443146, 41.43202111485567], [-124.13476963234183, 41.44584631900091], [-124.1357848521319, 41.46396148563946], [-124.14279955941271, 41.48273768456863], [-124.15154425314915, 41.500280106416426], [-124.16029062084391, 41.52265102617338], [-124.17234125311683, 41.535934404277725], [-124.17600726456948, 41.54328514801631], [-124.17813131873288, 41.551180942795725], [-124.184265251015, 41.55935179278305], [-124.18805319163414, 41.56759455631192], [-124.18995027600619, 41.57707747088051], [-124.18862404371657, 41.590925246900724], [-124.1908932447547, 41.59959835417891], [-124.19107075204613, 41.609102706247484], [-124.2035715614017, 41.6223542468519], [-124.21047719368266, 41.638419399952], [-124.21303930305368, 41.65706714263138], [-124.21266098430425, 41.6700658019862], [-124.21077802493221, 41.67889534363917], [-124.21211577180509, 41.68421525196425], [-124.24829659154062, 41.695991989445986], [-124.2709739758804, 41.70712790505365], [-124.29805133833838, 41.72519035710894], [-124.31339432998124, 41.72768372898008], [-124.32812268620836, 41.733059788346736], [-124.33729959973579, 41.73842486229677], [-124.35620679658143, 41.75329249977369], [-124.36541574031713, 41.75902130913977], [-124.38083725800158, 41.76409924663193], [-124.39367566943997, 41.771601170578606], [-124.40247408817629, 41.77972433619101], [-124.41468450169901, 41.795809264290995], [-124.42825410063631, 41.80527567573466], [-124.43785005062136, 41.81720581009114], [-124.44171389332371, 41.826348769451954], [-124.44314362040484, 41.835002452771846], [-124.44254122248913, 41.843869257966446], [-124.43992650478481, 41.85236672982825], [-124.43111261729854, 41.86560513709935], [-124.41750197044462, 41.87633728916603], [-124.3992761579729, 41.8841314808206], [-124.37995701633628, 41.88733448498226], [-124.36001562053389, 41.88617271310909], [-124.34160635389577, 41.88074920165917], [-124.32612761225312, 41.871538224590154], [-124.31495727164548, 41.859382688150674], [-124.29982474250232, 41.86068016939868], [-124.2851350206501, 41.859552136067066], [-124.2754688237901, 41.89877717038121], [-124.2851924216917, 41.91252977869317], [-124.289509890435, 41.923386250551346], [-124.29044962585016, 41.93674168282229], [-124.2876261466879, 41.94875025051198], [-124.20870823222708, 41.94935529530267], [-124.197384321828, 41.95460599008618], [-124.18445533643137, 41.94974791717709], [-124.1800989687298, 41.95214271821504], [-124.168585661456, 41.94994096196842], [-124.15914512188732, 41.952224617173215], [-124.15647490209983, 41.95421235675349], [-124.15650952709973, 41.96253310049059], [-124.15480351981074, 41.96344864423912], [-124.15556753335119, 41.96667825152582], [-124.15357538960433, 41.968709631730974], [-124.14815092398771, 41.96756836819111], [-124.14408066461903, 41.969194146313555], [-124.13425669900931, 41.96851704735627], [-124.12685221152077, 41.966224043193165], [-124.1142962177903, 41.96543114527776], [-124.1006776459364, 41.962417128615755], [-124.09191467928338, 41.97135417651856], [-124.086760845958, 41.971199408810435], [-124.08197230950714, 41.97348764839023], [-124.06909526994377, 41.974570996305204], [-124.0604002449573, 41.98189863796051], [-124.06023066579087, 41.98502897233067], [-124.05140700851291, 41.9952360702315], [-124.05143921372115, 42.00268714730322], [-124.04446925852363, 42.01220620666345], [-124.03642098666114, 42.011771780622496], [-124.03330409604098, 42.01435493061848], [-124.02998574396281, 42.0144848233266], [-124.02767395542475, 42.01850810977868], [-124.02812098459071, 42.022159827481346], [-124.01987435960348, 42.02991903267764], [-124.02001521272831, 42.034574117045395], [-124.02305933772357, 42.03991335141211], [-124.02356053980611, 42.04832249827405], [-124.01859732627213, 42.053180013891506], [-124.02327523251489, 42.05741571596826], [-124.02360645230607, 42.06270931596009], [-124.02852354084007, 42.0677902555355], [-124.02898936583938, 42.07069100865601], [-124.0279700022993, 42.07507726698253], [-124.02432246063825, 42.08016701176632], [-124.02426033563836, 42.0833782523863], [-124.01893033877161, 42.084776797175834], [-124.01560556377677, 42.08750420758827], [-124.01644266481719, 42.0916347492485], [-124.01529209398564, 42.09567906799225], [-124.02053973564415, 42.1056301211018], [-124.02388097626397, 42.106861267974864], [-124.03305170020803, 42.119693824204944], [-124.02941881792202, 42.12261894607542], [-124.02471443876266, 42.12247628253397], [-124.02281769084891, 42.12078887941158], [-124.01820556585608, 42.12215046482612], [-124.00744167108115, 42.11858880024835], [-124.00322638775435, 42.1130192398403], [-123.9956877460994, 42.11499662108724], [-123.99054298256567, 42.114030492963764], [-123.9870695513211, 42.11534336275338], [-123.98249958570318, 42.123560351282265], [-123.97899818466698, 42.12712625856841], [-123.96141927011092, 42.141283265838126], [-123.95109648679357, 42.14404868041714], [-123.94666933159215, 42.14176202729573], [-123.94205971909929, 42.13573896480506], [-123.92457630558476, 42.132620205434876], [-123.91892546496854, 42.1281315064835], [-123.90618447332162, 42.13191482731099], [-123.90322080145125, 42.129340832523326], [-123.89534753063015, 42.12847487002466], [-123.88985744418034, 42.12635603669463], [-123.88279913794128, 42.126991464818616], [-123.87607387128503, 42.12330317836603], [-123.87405985253815, 42.12432858253112], [-123.87289810670666, 42.1290801304404], [-123.8693334504622, 42.13196222001926], [-123.86088929422527, 42.13539427105559], [-123.85607514006608, 42.13322371585065], [-123.85464251090167, 42.130272179396854], [-123.85017644736689, 42.12694506690201], [-123.84591112133188, 42.12511659294654], [-123.83924142759224, 42.124670881488896], [-123.84015602863246, 42.11677855025113], [-123.83668802342953, 42.109619248178944], [-123.83215473801988, 42.107914069014896], [-123.82952826719065, 42.09728481694805], [-123.82197262241067, 42.08656722946472], [-123.82487656407284, 42.08444108363466], [-123.82692058594466, 42.07479640552464], [-123.82811225781785, 42.0736747805264], [-123.82738069844396, 42.07207542219555], [-123.82977270364859, 42.06846764928446], [-123.83417299426674, 42.06600176803829], [-123.8341390067668, 42.06257187846029], [-123.84136838488058, 42.059677355548104], [-123.8385740411349, 42.05761819617629], [-123.84068134842329, 42.051824574310274], [-123.84315131508617, 42.04896473264807], [-123.84849745986952, 42.04664669619336], [-123.84914943278517, 42.0443362003636], [-123.84447193383409, 42.03336017642232], [-123.83609739738876, 42.02919146288713], [-123.83757401509479, 42.027340260806625], [-123.83652998176308, 42.02400642747847], [-123.83754139113654, 42.020305913942536], [-123.83987818175791, 42.01902301290289], [-123.83996399738277, 42.01758668894678], [-123.8385926286349, 42.015304530617016], [-123.82661825677849, 42.00914804208486], [-123.82920666823281, 42.00522672646599], [-123.82884344323338, 42.0025048473035], [-123.81795603804193, 41.99874606814268], [-123.81097132971945, 41.99915185251706], [-123.80608485889366, 41.99786627335237], [-123.79789300369805, 42.00178815147132], [-123.7906994266259, 42.000346620223524], [-123.78835256308787, 41.99626457022987], [-123.79106943704198, 41.991564075445524], [-123.78996203496035, 41.987336901493734], [-123.78815045267152, 41.98650135149501], [-123.78979442141895, 41.98428021295683], [-123.78895778287858, 41.97991352650524], [-123.7824011380971, 41.97436503068053], [-123.78028471622537, 41.97414531609752], [-123.77575392144075, 41.97792776921665], [-123.77209490998808, 41.97818442754959], [-123.76745202249532, 41.9742680056807], [-123.74862085481624, 41.97172002755963], [-123.74267857357546, 41.96790211194059], [-123.74051887253711, 41.96372230048871], [-123.73481477879596, 41.96092839632638], [-123.73420702567194, 41.95899343174608], [-123.72721382255776, 41.95441134321152], [-123.71991508923577, 41.95621619112535], [-123.71253694653888, 41.95440209216986], [-123.70707572883902, 41.95591967862583], [-123.69743239552065, 41.949915130718466], [-123.69286129448608, 41.94985036405194], [-123.68678584345383, 41.94718488593105], [-123.68418680908292, 41.94536938385056], [-123.68351849033394, 41.942184743230484], [-123.6743217247232, 41.93908997552694], [-123.65278975496494, 41.93936718490153], [-123.65062969975997, 41.93619402553145], [-123.65218153100756, 41.931491122413775], [-123.65061935496834, 41.92753788700321], [-123.65072857267648, 41.92310622034341], [-123.65232050288233, 41.92022756618121], [-123.64902073934581, 41.91579485577142], [-123.64976456226134, 41.914125359940726], [-123.64850795913827, 41.90712346724325], [-123.63980042061013, 41.90357761724874], [-123.63632926436549, 41.900329343295425], [-123.63567059874151, 41.89649122871805], [-123.63594242790776, 41.894090384971776], [-123.6384778956122, 41.89097170997667], [-123.64271957893891, 41.88954317039554], [-123.64523346226838, 41.883609437071414], [-123.65012015809413, 41.881161139158564], [-123.65098695599625, 41.87922003793648], [-123.643905621098, 41.8841164737103], [-123.64191075985, 41.8894417192152], [-123.634726322271, 41.8877478255492], [-123.623476764807, 41.8885795462554], [-123.619164560071, 41.883572515694], [-123.604997375221, 41.8809774751611], [-123.603661607461, 41.8879513582629], [-123.596263186529, 41.8947542030915], [-123.598185989294, 41.8991665918771], [-123.592578504926, 41.905658113664], [-123.564819553303, 41.9034021786986], [-123.5580013335, 41.9066779970647], [-123.552933899241, 41.9138134499095], [-123.553174909097, 41.9301147254896], [-123.54754458782, 41.9336814083869], [-123.546663866515, 41.9384682423469], [-123.532085330867, 41.9549742047116], [-123.531548152962, 41.9616147173108], [-123.535853302834, 41.9698764603145], [-123.534558140436, 41.9740661547757], [-123.538238918099, 41.9875906507009], [-123.533210612117, 41.9908070165808], [-123.518793549972, 41.9951602989581], [-123.516266103599, 42.0010486026713], [-123.504245909184, 42.0010975318539], [-123.498427874411, 42.0026946207281], [-123.491729615771, 42.0078258337815], [-123.466882776743, 42.0108612823275], [-123.455488124127, 42.0104116934634], [-123.456505463105, 42.0162575302415], [-123.450355773716, 42.0176463443307], [-123.443578394257, 42.0158128447176], [-123.433342647624, 42.0177298496458], [-123.426866630078, 42.0121834462578], [-123.420280560782, 42.0098119547801], [-123.418814750151, 42.0058903674684], [-123.407484148684, 42.0060032036757], [-123.395455645129, 42.0035368905769], [-123.38474339561, 42.0055727971592], [-123.376223933583, 42.0098207035324], [-123.370732691711, 42.0026781942231], [-123.361363092253, 42.0041671693829], [-123.347026587931, 41.9978661350649], [-123.342057917711, 41.9906350902833], [-123.34192443888, 41.9822591667169], [-123.335011216397, 41.9732772416934], [-123.325011369131, 41.9732699605044], [-123.319273720337, 41.9695302157419], [-123.309368981069, 41.9680126633098], [-123.301517012794, 41.9616116806997], [-123.302321238184, 41.9459466489995], [-123.291192920398, 41.9497853156575], [-123.282990413006, 41.9475090766922], [-123.274703312279, 41.9483128010835], [-123.2669680576, 41.9433547536025], [-123.259360130876, 41.9355677311733], [-123.251601631862, 41.933207176462], [-123.247584605943, 41.928410731041], [-123.239843666786, 41.9239507317854], [-123.20166234121, 41.9173635262444], [-123.197934265699, 41.9205269371905], [-123.190396647209, 41.9195984607161], [-123.184620303762, 41.9256200064521], [-123.184643831343, 41.9292047160379], [-123.177710260712, 41.9339622913263], [-123.169849350656, 41.9344155268028], [-123.162901817241, 41.9396721068511], [-123.156036782865, 41.9370201066932], [-123.150712795628, 41.9409046832047], [-123.141630144501, 41.9425329817743], [-123.113871968776, 41.9374659700698], [-123.099352760351, 41.9471798647697], [-123.086428151522, 41.9486899661787], [-123.071851742569, 41.9560901486138], [-123.066250879064, 41.9539724008685], [-123.055062850302, 41.9542845452077], [-123.049584710793, 41.9524586479443], [-123.028961499207, 41.9507408870033], [-123.021573117174, 41.947324404458], [-123.014917382153, 41.9492394230633], [-123.01059636679, 41.9473934938282], [-123.005486776862, 41.9396119051871], [-123.00444296654, 41.9344059662352], [-122.999289127504, 41.9314878146055], [-122.990807412323, 41.9305642413237], [-122.978273671783, 41.9377500578547], [-122.971012217192, 41.9330198341125], [-122.963956724602, 41.9325674910899], [-122.959609194632, 41.9362363544709], [-122.959101919291, 41.9449323242483], [-122.955495998309, 41.9491507048448], [-122.956841428642, 41.9533168958465], [-122.939602974437, 41.9670400726932], [-122.937366059633, 41.9714342125006], [-122.930627167997, 41.9740918579284], [-122.913102159011, 41.9869281625177], [-122.898403240241, 41.9946619476867], [-122.895743263421, 42.0039455653585], [-122.887613265583, 42.0095401105929], [-122.885907375281, 42.0182704898311], [-122.876509753646, 42.0221336700829], [-122.874836275324, 42.0274413370763], [-122.876480910229, 42.0331353797772], [-122.861825125197, 42.0371717022973], [-122.857968296845, 42.0455747710668], [-122.840735653313, 42.0526809633277], [-122.830699446253, 42.0518830139783], [-122.823541104772, 42.0495485007044], [-122.816645499333, 42.052019039349], [-122.797489994501, 42.0500323830079], [-122.794945689266, 42.051527481919], [-122.79354158938, 42.0620447856949], [-122.784250151778, 42.0633381674514], [-122.771588383056, 42.0683348899837], [-122.763557416179, 42.0668280199295], [-122.755115244462, 42.0700076859653], [-122.75009367382, 42.0766302710302], [-122.729456748727, 42.086247613472], [-122.713967685116, 42.0802971869522], [-122.700677408698, 42.0822357478868], [-122.694888579875, 42.072142054172], [-122.681466676492, 42.069200935106], [-122.675772589724, 42.070117179298], [-122.667369582989, 42.0670443742077], [-122.659188261066, 42.0698484630764], [-122.655670587393, 42.0737963902199], [-122.635404062922, 42.0802050709849], [-122.628794437248, 42.083646935164], [-122.621469301056, 42.0838977088604], [-122.61485660367, 42.0804126524134], [-122.615133780249, 42.0736811123436], [-122.610061755096, 42.0635945426378], [-122.605008362631, 42.0590469048286], [-122.603420819727, 42.0537950387181], [-122.594015913364, 42.0498982861368], [-122.584056001568, 42.0507993171397], [-122.573151292642, 42.0337141000919], [-122.57268395826, 42.0298755002896], [-122.559653263389, 42.0312087778303], [-122.549303966662, 42.0416163834698], [-122.542354343753, 42.0432055843319], [-122.534870723265, 42.0409283293259], [-122.520415049742, 42.0425620934358], [-122.51345569264, 42.0533363171618], [-122.501507833553, 42.05682916745], [-122.492209025247, 42.0635704153135], [-122.486646152811, 42.0655541497089], [-122.477847562312, 42.0653928644851], [-122.475472972808, 42.0759828519426], [-122.481344897203, 42.0818503395463], [-122.481553139366, 42.0871786961696], [-122.474000329927, 42.0970335785578], [-122.477473981686, 42.1238169995907], [-122.480949024801, 42.1264176540156], [-122.48221185477, 42.1339303174586], [-122.48696178901, 42.1375812907372], [-122.500223565045, 42.1398329171437], [-122.50579498103, 42.1422032531892], [-122.504644662469, 42.1533528713253], [-122.498901143119, 42.1560929278276], [-122.498056542942, 42.1644652829618], [-122.503627705325, 42.1732303212663], [-122.498943634866, 42.1779383595716], [-122.503926390118, 42.1958153240338], [-122.501153232374, 42.2027922961822], [-122.501339750375, 42.211709471511], [-122.495049933992, 42.2167570709336], [-122.481833131469, 42.2221605114314], [-122.454187798842, 42.2270668647849], [-122.450977652283, 42.2316718201078], [-122.444400986673, 42.2310862582675], [-122.441705443212, 42.2356394032603], [-122.434147408525, 42.2381241485933], [-122.436268594281, 42.2475417402343], [-122.449318880774, 42.2489290774199], [-122.451355436513, 42.2569589918845], [-122.446657477948, 42.2660823547242], [-122.446987139851, 42.2704159869526], [-122.44124702788, 42.2757424186055], [-122.420952087146, 42.2802889937059], [-122.419845083026, 42.2918114529539], [-122.407054217538, 42.2960014947575], [-122.397845912906, 42.3022443892542], [-122.394888166123, 42.29201120495], [-122.389931331679, 42.288107737354], [-122.390985239397, 42.2809263196893], [-122.385299052244, 42.2769242037492], [-122.384753375286, 42.272634276548], [-122.340799105098, 42.2705752734815], [-122.332403940961, 42.2639250861355], [-122.323517029298, 42.2597075885526], [-122.317677270877, 42.2463436289185], [-122.309809482446, 42.2442250933185], [-122.287668262311, 42.2480299830406], [-122.279182132655, 42.2517190894], [-122.27426320288, 42.2514854256533], [-122.269339047228, 42.2570245663762], [-122.270132326555, 42.2620866595549], [-122.262077277983, 42.2717078730533], [-122.25101462739, 42.2792554669546], [-122.247703568971, 42.2832280740892], [-122.266416216344, 42.2942423805388], [-122.266853222643, 42.301405141955], [-122.258008565312, 42.3114037094242], [-122.250031353442, 42.3170977787143], [-122.233700575035, 42.3258879304376], [-122.233265535538, 42.3426590390014], [-122.230003263088, 42.3555700215878], [-122.24861710918, 42.3607955079224], [-122.262203872335, 42.3612394921257], [-122.269251862627, 42.36507171621], [-122.264725024803, 42.3704239397778], [-122.264126181817, 42.3876488039086], [-122.268557437366, 42.4057478878192], [-122.271472740636, 42.4127371536676], [-122.277536222299, 42.4179810355744], [-122.280377518506, 42.4244022143453], [-122.30339085862, 42.4420251099522], [-122.31489306237, 42.4446791686437], [-122.303923717135, 42.4514846685438], [-122.278322740989, 42.4741024813763], [-122.27926899867, 42.4891709061007], [-122.283355740503, 42.4987113129772], [-122.267251073344, 42.4988616370652], [-122.248393288011, 42.5036162163838], [-122.240105050008, 42.5018549345302], [-122.234572665719, 42.5033040925792], [-122.229517791025, 42.5086512516032], [-122.226558955504, 42.5154668006206], [-122.228721921496, 42.5341505772374], [-122.227754484296, 42.5433660643207], [-122.23044735955, 42.5654935143519], [-122.234240101769, 42.5752587133396], [-122.227000617863, 42.5804604807095], [-122.223221895198, 42.5891435220264], [-122.215119287847, 42.5962704053632], [-122.213716414404, 42.6009077610485], [-122.216619180232, 42.6126351264661], [-122.212888730949, 42.622475340344], [-122.214230645187, 42.6268523293707], [-122.223540058377, 42.6372543679305], [-122.212938579179, 42.6431392896005], [-122.204927673466, 42.6414584395876], [-122.197953429654, 42.648780978179], [-122.173935609364, 42.6550268357178], [-122.167524135328, 42.6548183171002], [-122.165531370351, 42.6637959706266], [-122.171802375749, 42.6749994813804], [-122.173113374633, 42.6852528583381], [-122.178173005759, 42.6952494852893], [-122.19309140726, 42.7039018774496], [-122.187631142202, 42.706902666063], [-122.184078600395, 42.7157659241758], [-122.184933260215, 42.722778344676], [-122.182044235388, 42.7352529564247], [-122.18298106661, 42.7469983616738], [-122.177795490218, 42.7505004193711], [-122.183650969355, 42.7580979391867], [-122.185255545329, 42.7661512824417], [-122.173403988232, 42.7847662297655], [-122.174613121636, 42.7965315777292], [-122.173143706849, 42.8013929219615], [-122.175068955335, 42.8118080843549], [-122.181792706658, 42.820929289672], [-122.178812125512, 42.8233259037516], [-122.178913795764, 42.8298555500405], [-122.187197322044, 42.8429274424465], [-122.18529530777, 42.8487989354588], [-122.17801076587, 42.8526416868734], [-122.182235375026, 42.8618709112778], [-122.18944319374, 42.8685185846661], [-122.181704596854, 42.876338695136], [-122.176554817401, 42.8785080732622], [-122.159014022352, 42.8798259127743], [-122.146973398736, 42.891808437662], [-122.143307055567, 42.9086704644113], [-122.144029681485, 42.9110037316883], [-122.157400068711, 42.9176047295643], [-122.16390086492, 42.9239740848803], [-122.170584393498, 42.943136317866], [-122.161991643646, 42.9561718047155], [-122.136465528651, 42.975419744358], [-122.144356666422, 42.9788154228979], [-122.154841831991, 42.9882586897002], [-122.157221769642, 42.9946293671347], [-122.165001758119, 42.9998733506976], [-122.163069051517, 43.0153840553964], [-122.16344753007, 43.0256391256918], [-122.158482139826, 43.0295739634696], [-122.158070090226, 43.037887120018], [-122.160668588716, 43.0409364133045], [-122.162211653948, 43.0539555222386], [-122.149446531847, 43.0602549298096], [-122.146894627978, 43.0561521495407], [-122.134499488046, 43.0525380994562], [-122.129447287522, 43.0494110456663], [-122.119742122205, 43.0502237981365], [-122.108082888534, 43.0456354963971], [-122.093638689856, 43.0468817649899], [-122.090062097117, 43.042467922763], [-122.06949482861, 43.0453102146828], [-122.060862364989, 43.0450100655961], [-122.067028565306, 43.0524536401463], [-122.068991508108, 43.063874488286], [-122.082383081129, 43.0725734401143], [-122.092571388119, 43.0760720879737], [-122.091121970108, 43.0873933636713], [-122.08625524449, 43.0914788819953], [-122.085802619613, 43.1000705072335], [-122.081593724913, 43.1049129844137], [-122.080004792483, 43.1141302872323], [-122.076036219644, 43.1180694832489], [-122.074197446716, 43.1268074045896], [-122.067246717892, 43.1313254442671], [-122.06311533534, 43.1417238637134], [-122.065957321861, 43.1499550544656], [-122.061363810857, 43.1540326873321], [-122.052791649639, 43.1574514218388], [-122.051224626069, 43.1648269237696], [-122.053374684684, 43.1692300968691], [-122.050649466236, 43.1760511934518], [-122.043298700855, 43.1866066465965], [-122.038057613511, 43.1904077508062], [-122.039782383214, 43.1978422013044], [-122.032632712296, 43.2077502675191], [-122.039471614182, 43.2167676510981], [-122.026881968986, 43.2201235750865], [-122.01144513176, 43.2340026005063], [-122.000990461425, 43.2348482619094], [-121.995176240574, 43.2408845314506], [-121.98931956778, 43.2524445128503], [-121.984601935556, 43.257143705389], [-121.9728000691, 43.2613785871606], [-121.96247925, 43.2562112880037], [-121.954023054309, 43.2568636496602], [-121.944628747078, 43.2603297034196], [-121.936762418366, 43.272705813186], [-121.924043936189, 43.2762337604518], [-121.914431587977, 43.2715100309079], [-121.899176539818, 43.2690140039133], [-121.886829473174, 43.2644687058276], [-121.882800405541, 43.2645554865154], [-121.871115012134, 43.256111424824], [-121.852666361053, 43.2472248233], [-121.843967598299, 43.2408834750818], [-121.836428292893, 43.2396769368197], [-121.82535536921, 43.2421976289959], [-121.819381551176, 43.2365892306982], [-121.814733861199, 43.2357217352475], [-121.808734283926, 43.2283565917539], [-121.79614124836, 43.2226373194304], [-121.7924581604, 43.2299688502732], [-121.781002355169, 43.2373707571091], [-121.772616962032, 43.2397078439926], [-121.765194254063, 43.2471738692206], [-121.753046087077, 43.246564823341], [-121.746812029464, 43.2635650121482], [-121.738994930122, 43.264285006325], [-121.727773576062, 43.2723414406778], [-121.72434972516, 43.2832754273623], [-121.719999955558, 43.2889987768502], [-121.71530536867, 43.3063024728496], [-121.70481211348, 43.3059770074017], [-121.701112792804, 43.3076999458474], [-121.677942934902, 43.3109957387348], [-121.673239831575, 43.3165826216689], [-121.656818289219, 43.3252783971768], [-121.65643230171, 43.3330672777913], [-121.650316315049, 43.3381908588397], [-121.643750536119, 43.338603920103], [-121.637701305675, 43.3350832870925], [-121.648317617524, 43.3140441249928], [-121.643738846254, 43.3073940808159], [-121.632391443163, 43.306714164079], [-121.629030634325, 43.3137514955779], [-121.620279147543, 43.3146502481824], [-121.615305104802, 43.3198397693353], [-121.609600264616, 43.3214453897218], [-121.607002599406, 43.3300175921839], [-121.600416699737, 43.3324404280208], [-121.592936259833, 43.3263696333837], [-121.580879385115, 43.3195167794263], [-121.57330081343, 43.3127501256869], [-121.571792536247, 43.3070269265519], [-121.565322552224, 43.3040779931282], [-121.559783170616, 43.2974755667142], [-121.554748254785, 43.2850082687389], [-121.557847693688, 43.273643101863], [-121.563642869742, 43.2678990693502], [-121.5757626347, 43.2605768254993], [-121.573131017259, 43.2509360990329], [-121.57486043969, 43.2472612638623], [-121.571362713931, 43.2420039443215], [-121.572814096088, 43.237636805936], [-121.563318092799, 43.2284907573885], [-121.523472011183, 43.2253404287162], [-121.512540213002, 43.2118898983862], [-121.512777390443, 43.2074491788725], [-121.504528483913, 43.1999217693042], [-121.494621481881, 43.1975046188107], [-121.485478529818, 43.1896669037024], [-121.473516588385, 43.1820970248997], [-121.468972932794, 43.1755213944556], [-121.464889324865, 43.1739763826451], [-121.463436668506, 43.1664694580793], [-121.459832949915, 43.1634179169888], [-121.458613309506, 43.1559095545638], [-121.463789004678, 43.1506303661803], [-121.465589957593, 43.1450986092597], [-121.463196377648, 43.1371332861785], [-121.458862539964, 43.1353775828612], [-121.458954990373, 43.1214754565772], [-121.462118822673, 43.1137423961943], [-121.466744528602, 43.1091670146537], [-121.464058213957, 43.1055515682186], [-121.446140814074, 43.104120968527], [-121.431402787683, 43.0908223352555], [-121.42512608466, 43.0789262677265], [-121.420441449175, 43.0745303559332], [-121.41240166485, 43.0739012924157], [-121.404442680607, 43.0759337204517], [-121.392031987471, 43.0651342479769], [-121.384776211289, 43.0526818800168], [-121.365226273221, 43.0376407215351], [-121.359474273027, 43.0263878278809], [-121.353825475757, 43.0093099341372], [-121.357388815179, 43.0036520231357], [-121.351423622461, 42.9982443189601], [-121.33890704476, 42.9814716920416], [-121.346035763353, 42.980552892196], [-121.343083230167, 42.9749000864478], [-121.349909270139, 42.9695056903973], [-121.34777018013, 42.9635855682163], [-121.351311472217, 42.9565181999024], [-121.347079596743, 42.944070770148], [-121.347391753206, 42.9341202295646], [-121.330141945892, 42.9386379844284], [-121.316243085441, 42.9455257718501], [-121.302367176523, 42.9455008660324], [-121.295854379665, 42.9416850008844], [-121.2978170758, 42.9300302149167], [-121.274199931243, 42.9204778697734], [-121.259676535803, 42.9100597411683], [-121.250013606423, 42.9095431839289], [-121.244470292836, 42.9053159711313], [-121.233072239459, 42.9047353347821], [-121.217904948531, 42.8952745025528], [-121.205966306782, 42.8944035938572], [-121.192042674706, 42.8956748133029], [-121.182106240523, 42.8920324636765], [-121.156953886055, 42.8926387296065], [-121.126655668964, 42.8839747324584], [-121.112963637452, 42.8916561866231], [-121.102888089488, 42.8857849371894], [-121.094956387573, 42.8780979757107], [-121.090853457416, 42.8714154187218], [-121.084061726415, 42.8726616788177], [-121.08176976228, 42.8797597592172], [-121.063957720789, 42.8822108468998], [-121.057355460377, 42.880144880711], [-121.034886175037, 42.8825302956551], [-121.023909964848, 42.879599274844], [-121.020314868066, 42.8700503835057], [-121.012584580009, 42.8663144029425], [-121.003384241975, 42.8566629900381], [-120.984667615915, 42.8519945206619], [-120.972335017696, 42.845405645692], [-120.956936926997, 42.8421106245369], [-120.948083741292, 42.8428302291748], [-120.941123744389, 42.8461586507891], [-120.923449289384, 42.8427821310746], [-120.917239296195, 42.8437588912106], [-120.906026510236, 42.8388041537711], [-120.897215064973, 42.842280611296], [-120.886765392992, 42.8411516181254], [-120.876896237956, 42.836682589081], [-120.861087937712, 42.8378425397206], [-120.834753467906, 42.8366314392376], [-120.839688897442, 42.8295207328599], [-120.839205537021, 42.8199348100106], [-120.834242495476, 42.813406935168], [-120.835220804428, 42.8078243340595], [-120.828074433447, 42.7949513588955], [-120.838997373325, 42.779966621169], [-120.839515354743, 42.772520219433], [-120.834249719004, 42.7638839162626], [-120.825918183787, 42.7594485718548], [-120.810607042778, 42.7569595063826], [-120.816555232477, 42.7373339928528], [-120.811709508242, 42.7292134222715], [-120.803412540138, 42.7246870451001], [-120.802303866712, 42.7178218859904], [-120.797762782631, 42.711192404011], [-120.795991064768, 42.7001000158282], [-120.780696421605, 42.691078573032], [-120.774572392507, 42.6917656539521], [-120.772768948973, 42.6871739852706], [-120.762745188098, 42.6792611391231], [-120.75924620573, 42.6803903944182], [-120.750115298138, 42.6733223873926], [-120.744878882235, 42.6719451364411], [-120.729134828436, 42.6567439295929], [-120.724396717565, 42.6455599990772], [-120.733766814115, 42.6383165720525], [-120.740405078782, 42.6453367319674], [-120.759157708743, 42.6491497586881], [-120.76480404673, 42.6367609160766], [-120.776377542775, 42.6320018737087], [-120.783718539642, 42.6317344603956], [-120.784968660557, 42.6265311185549], [-120.79657198693, 42.6224054595346], [-120.804256147515, 42.6151597574618], [-120.794477450313, 42.6125088972031], [-120.790187074303, 42.6057172693547], [-120.794430348854, 42.6023590654412], [-120.788793329366, 42.5942041505284], [-120.791678819697, 42.5905361486723], [-120.783888829135, 42.5857074221477], [-120.783637198395, 42.5818257778663], [-120.772905625728, 42.5756921039718], [-120.779717949492, 42.5673684051017], [-120.775258834904, 42.5614239184074], [-120.765449572622, 42.5556316455569], [-120.764297625087, 42.5515432646754], [-120.774133476102, 42.5480021388381], [-120.781942492999, 42.5501663291823], [-120.789054160308, 42.5451257686414], [-120.789755176775, 42.5369939645595], [-120.806780476289, 42.5259429632642], [-120.819438148212, 42.5225059346842], [-120.830836530864, 42.5262659820968], [-120.841904647345, 42.5227963500807], [-120.845584523442, 42.5149273594594], [-120.859963244777, 42.5107302086644], [-120.861559782437, 42.5057169855914], [-120.872870128515, 42.4999704728349], [-120.87692758592, 42.4949891842996], [-120.869872921931, 42.4833852663569], [-120.859636912269, 42.4831539512649], [-120.847826479852, 42.4782363310629], [-120.838171539926, 42.484142224402], [-120.821631788079, 42.4902677862495], [-120.817162918957, 42.4885077075223], [-120.775898901464, 42.4860209540388], [-120.766940130158, 42.482739796015], [-120.764607962891, 42.4795829392982], [-120.765537393051, 42.4707307324203], [-120.760258273856, 42.464296822912], [-120.770862628983, 42.4506442742617], [-120.771635295063, 42.4447787393186], [-120.765127790465, 42.4390190603495], [-120.756423542208, 42.4349810860793], [-120.754623121478, 42.4294839947507], [-120.746601216343, 42.4257513239842], [-120.735863399029, 42.425364020061], [-120.721300116274, 42.4176142626935], [-120.725517616214, 42.4136140810263], [-120.715235758369, 42.4038681978374], [-120.713381542049, 42.3927184261996], [-120.702806042106, 42.3865857710778], [-120.69807491736, 42.3750087956928], [-120.693149148767, 42.3674261480773], [-120.683863511962, 42.357481348121], [-120.677589124144, 42.3536755974423], [-120.670588463577, 42.3428484324368], [-120.670190278712, 42.3376486392972], [-120.685881969925, 42.341811954689], [-120.719907312479, 42.3473750100895], [-120.719280585769, 42.341081152215], [-120.735742917288, 42.3352207575651], [-120.750020936833, 42.3437961201128], [-120.753302500344, 42.3491783013283], [-120.764317971962, 42.3445172008097], [-120.776881548835, 42.3462970638773], [-120.782300896873, 42.3437138912442], [-120.803775825724, 42.3415968675955], [-120.810614525686, 42.3350590473986], [-120.814846894738, 42.327737182968], [-120.823998411842, 42.3213957076316], [-120.821533663241, 42.3129961290191], [-120.828664664609, 42.310380210232], [-120.835191524705, 42.3050867506494], [-120.834252517118, 42.2981301227853], [-120.837607745039, 42.2890796929962], [-120.826472773442, 42.2831549646898], [-120.815266090489, 42.2682670937649], [-120.802332484766, 42.2664483641474], [-120.792454115292, 42.2579417647824], [-120.793024148535, 42.2523736875058], [-120.803491496036, 42.248193431523], [-120.803997550858, 42.2428221878913], [-120.812679784962, 42.2358736161457], [-120.818088318689, 42.2252147687959], [-120.823212509779, 42.2211019656763], [-120.819562097243, 42.2159713382576], [-120.823170228298, 42.2136938883741], [-120.82152343584, 42.2076602352464], [-120.816107392662, 42.1994654706219], [-120.820508341779, 42.1915835528157], [-120.816431131773, 42.1835808384899], [-120.824877766165, 42.164788537692], [-120.825888690348, 42.1515735574378], [-120.82433989773, 42.1416511999252], [-120.817709483204, 42.1376932037328], [-120.82683241016, 42.1324809042796], [-120.831373834817, 42.1228224527297], [-120.833335046353, 42.103298589615], [-120.844648578589, 42.0909484074561], [-120.851387891322, 42.0912324542685], [-120.854290226559, 42.0964156981555], [-120.862154645941, 42.0961392698727], [-120.869955620786, 42.0929927118836], [-120.880286690663, 42.1032933371432], [-120.884361045754, 42.1047104564906], [-120.886852358288, 42.1111011049539], [-120.895650495545, 42.1127668668114], [-120.904811195255, 42.1048877143279], [-120.904273647665, 42.0964032353086], [-120.908253144729, 42.081557385513], [-120.906337663477, 42.0742320454643], [-120.908451743678, 42.0579831464288], [-120.895465619426, 42.0555301498], [-120.892379025057, 42.0501373852907], [-120.878827102134, 42.0591008075156], [-120.872592512089, 42.0598814565638], [-120.865920116125, 42.0574249536786], [-120.852585253295, 42.0589187723414], [-120.849535825006, 42.0558401204141], [-120.830757974058, 42.0580352729733], [-120.813854257624, 42.0552782438878], [-120.806845354962, 42.0565133708774], [-120.791488628338, 42.0735282583235], [-120.78906955919, 42.0799704616178], [-120.782317699859, 42.0806101270788], [-120.773534474802, 42.0843260421403], [-120.770675790581, 42.0818749311492], [-120.772678764899, 42.0702781352512], [-120.764054395283, 42.0615771820474], [-120.754366751556, 42.0587041540337], [-120.745892438035, 42.0595376023035], [-120.738035106832, 42.0524753485086], [-120.733509895021, 42.0528363248824], [-120.728008250871, 42.0471572937617], [-120.717236345108, 42.0417109663112], [-120.711147265374, 42.0417562434375], [-120.703644493065, 42.0384316906701], [-120.697593290075, 42.0432276538679], [-120.686900853185, 42.0434223143536], [-120.691657660681, 42.0360702037898], [-120.690680251692, 42.0314124568072], [-120.699477394441, 42.0274464614922], [-120.701413808361, 42.0173895598562], [-120.697001182783, 42.0131898240026], [-120.702369857576, 42.009348336624], [-120.704621922962, 42.000869221261], [-120.699683619586, 41.9939437471052], [-120.691378796891, 41.993565296099], [-120.668200647039, 41.9880396842446], [-120.663134663118, 41.9816864358158], [-120.650642084818, 41.9769147935311], [-120.6391829273, 41.9794174064725], [-120.626341170298, 41.9798414078897], [-120.612485105227, 41.9749248282841], [-120.609283262725, 41.9659512230757], [-120.599286528601, 41.96476984358], [-120.590473080794, 41.9617572139121], [-120.585116079521, 41.9472349859662], [-120.575307415947, 41.9349961006873], [-120.564332758247, 41.9276083938035], [-120.566516178189, 41.9206930569441], [-120.564554154889, 41.9154909747934], [-120.568937748773, 41.9009806101077], [-120.574081941638, 41.8980183975016], [-120.570932510604, 41.8906748747459], [-120.573049486546, 41.8798673291548], [-120.570139783639, 41.8762573635497], [-120.579598522501, 41.8737148660837], [-120.586105452448, 41.8756486201516], [-120.586266915953, 41.8644168879549], [-120.58078297857, 41.8509993835732], [-120.575685278204, 41.843236613781], [-120.579451074253, 41.8380294767829], [-120.578890997282, 41.8248776780972], [-120.58824547196, 41.8226339144158], [-120.597742998539, 41.8242740428197], [-120.601519639714, 41.818233305242], [-120.597626795753, 41.8065339106071], [-120.613838839764, 41.7973344228882], [-120.619849221229, 41.7970403932416], [-120.620326133422, 41.7921824071228], [-120.616133637819, 41.7854082981474], [-120.619104950644, 41.7809398069046], [-120.634788180343, 41.7695602950045], [-120.650351937558, 41.7675201845851], [-120.665046003102, 41.7591063195092], [-120.670176629164, 41.7528340525628], [-120.685115230636, 41.7533838429153], [-120.695980486603, 41.7513552741533], [-120.705299929247, 41.7517039942885], [-120.71476714326, 41.7435483820208], [-120.723838612513, 41.7420803730958], [-120.7253887159, 41.7364280547046], [-120.734475999826, 41.7366121841907], [-120.742054022616, 41.7320015405699], [-120.744414724717, 41.7214248577208], [-120.749926835563, 41.7163092481008], [-120.750680243648, 41.7107985536109], [-120.759978605842, 41.7104488949951], [-120.766652119898, 41.7075211608969], [-120.772259005283, 41.7002267286307], [-120.780124087558, 41.6943356519396], [-120.783453266199, 41.6964128941151], [-120.794343528862, 41.6952805614969], [-120.800315319546, 41.6864966484979], [-120.810034937769, 41.6828050551883], [-120.81140474405, 41.6767292373396], [-120.817340818985, 41.6721452674085], [-120.815486200022, 41.6642292838768], [-120.80959005414, 41.6550564171453], [-120.811042499308, 41.6480499706401], [-120.82467470221, 41.6364742375105], [-120.817013073429, 41.6314068149453], [-120.818686324791, 41.6160282811465], [-120.814249490616, 41.6127871450667], [-120.823475297251, 41.6076753786699], [-120.821045293778, 41.6027071961396], [-120.814633687986, 41.5978974798984], [-120.80948748591, 41.597957110051], [-120.809164312181, 41.5914841780712], [-120.815965948465, 41.588745031293], [-120.825359780469, 41.5942641335021], [-120.843524802236, 41.591895449571], [-120.844597082134, 41.5841878361491], [-120.851120279805, 41.5739522995373], [-120.851121363643, 41.5665037721027], [-120.861910520033, 41.5647595471036], [-120.864678967611, 41.5294370083344], [-120.869578697313, 41.527978759857], [-120.874460842319, 41.5336848690669], [-120.883100791757, 41.5394465299353], [-120.88412807577, 41.5464501945324], [-120.890543486489, 41.5464735446317], [-120.890262346654, 41.5359709873206], [-120.897091451703, 41.5314261089893], [-120.903675425142, 41.5369234295191], [-120.911398198478, 41.5356364397835], [-120.922221541572, 41.53008625161], [-120.928146301428, 41.5432710802285], [-120.923334629347, 41.5490746896893], [-120.924758357109, 41.5589808443604], [-120.913049628436, 41.5562649532221], [-120.910139683392, 41.5654034797317], [-120.902555910792, 41.573101196834], [-120.90061622408, 41.5866749491975], [-120.893131200222, 41.5921446447482], [-120.909809649342, 41.5985737799749], [-120.923178366879, 41.5866841043731], [-120.934458882636, 41.5905981864264], [-120.945984747475, 41.5912641157338], [-120.949909322926, 41.5969949329593], [-120.955236052172, 41.5971979176411], [-120.958412207377, 41.6066033829196], [-120.963646281251, 41.6077275251454], [-120.97189464784, 41.6043337472966], [-120.972896091041, 41.5976188717186], [-120.979227329612, 41.5975727591578], [-120.981580405945, 41.5933404033723], [-120.988790523288, 41.5933992620114], [-121.009032211041, 41.5858933008885], [-121.013446407962, 41.5909414380494], [-121.023141498068, 41.5902529718173], [-121.025944327987, 41.5774799582498], [-121.025474986715, 41.5697800691689], [-121.031783483536, 41.5382652084628], [-121.037405254775, 41.5378524412931], [-121.050330330498, 41.5312721867992], [-121.065275614668, 41.5323443242019], [-121.076216072654, 41.531154382837], [-121.089746896064, 41.5265162867154], [-121.117342738375, 41.5229499324603], [-121.119597628751, 41.5187490641946], [-121.115556683276, 41.5106757053467], [-121.124983328882, 41.5035792147438], [-121.140225400146, 41.5056957353313], [-121.165935191653, 41.51526886882], [-121.192554526654, 41.5185952080662], [-121.198093836764, 41.5278062560177], [-121.207076744233, 41.5381201038704], [-121.221927676402, 41.541809452588], [-121.227142070742, 41.5462673853705], [-121.241506337434, 41.5497485503749], [-121.246677694847, 41.5539032066365], [-121.250352460395, 41.5616916946287], [-121.255767316081, 41.563453790167], [-121.261087629434, 41.5689475931028], [-121.261751253809, 41.5747806373771], [-121.267086069742, 41.5857280907596], [-121.275771434223, 41.5930777859784], [-121.278961577554, 41.6052579498912], [-121.282292964438, 41.6090771896899], [-121.278986664243, 41.6211285202561], [-121.282805669165, 41.6295575675238], [-121.288548007273, 41.6309852595988], [-121.294914944674, 41.629192959297], [-121.289041641772, 41.6187026819438], [-121.290095667613, 41.6160027826876], [-121.298808126828, 41.6122410877314], [-121.301743494438, 41.6075108237583], [-121.317489161477, 41.602468842165], [-121.356236824551, 41.5986521542799], [-121.370258540264, 41.6038777336987], [-121.376392382999, 41.6021226186485], [-121.387884015146, 41.6046532203161], [-121.404220473754, 41.6007199681519], [-121.41611030315, 41.6012942526679], [-121.430717486776, 41.5932937242688], [-121.444868639341, 41.5894914370291], [-121.449627418239, 41.5839578409384], [-121.472942206793, 41.5740739370648], [-121.495554638988, 41.5720257597393], [-121.509665305658, 41.5779651048521], [-121.522220235936, 41.5785595361298], [-121.517873795614, 41.5870377960074], [-121.511394108293, 41.5874944880508], [-121.51142144577, 41.6018701272787], [-121.522524541354, 41.6010856603359], [-121.531503663143, 41.6068436582653], [-121.550217831044, 41.6089366933133], [-121.557297165574, 41.6143714670892], [-121.563069363982, 41.6215638590298], [-121.588670364181, 41.6214307311461], [-121.596831234545, 41.6186844190758], [-121.602692939501, 41.6196250153668], [-121.615194831578, 41.6141423948544], [-121.625224351843, 41.6069805564718], [-121.627937914481, 41.5986633864397], [-121.64512678994, 41.5919002640698], [-121.652493851821, 41.5837993658457], [-121.665915006538, 41.5828660437986], [-121.677723575638, 41.5758823132727], [-121.68314068494, 41.5697925894292], [-121.686547230501, 41.5752133543227], [-121.694826202901, 41.577014509999], [-121.700307823776, 41.5811298475211], [-121.710423558985, 41.5721420076396], [-121.731532899305, 41.5677426592379], [-121.733201326611, 41.5631448580422], [-121.74223623091, 41.559735745173], [-121.745283260651, 41.5456501909005], [-121.760193388654, 41.5517612316642], [-121.77332570557, 41.543993723494], [-121.778537286451, 41.5446211699944], [-121.791919162091, 41.5512252720065], [-121.806875767206, 41.5451754477814], [-121.814232684804, 41.530362504846], [-121.825209630462, 41.5285160929498], [-121.834531977193, 41.5298809934542], [-121.843143466842, 41.5286979260573], [-121.848083254304, 41.5304273843019], [-121.85148055245, 41.5215801475248], [-121.858839598524, 41.5164832045682], [-121.88503569251, 41.5119753010203], [-121.889740365759, 41.503436801017], [-121.894462352446, 41.5005864218963], [-121.895807092908, 41.4949066750434], [-121.901585613575, 41.4899584054992], [-121.908285154469, 41.4783440923607], [-121.912084444193, 41.4759480902724], [-121.921385132462, 41.4784586894745], [-121.934328645586, 41.4758816266758], [-121.94186491594, 41.4719609147923], [-121.955488077404, 41.473305951659], [-121.959566774738, 41.4694111699489], [-121.979613052294, 41.4613084002431], [-121.985991064066, 41.466174794107], [-121.996215477957, 41.4670256110008], [-122.003260882656, 41.4722211380751], [-122.009210136123, 41.4739209074102], [-122.030873662648, 41.4601258811014], [-122.044612802237, 41.4594436586057], [-122.048434896326, 41.4512289731368], [-122.053291564281, 41.4468148323094], [-122.057040891142, 41.4507323722753], [-122.05979175868, 41.4675989168052], [-122.067714514264, 41.4839579350601], [-122.074814212717, 41.4892350917966], [-122.083475879092, 41.4984109814791], [-122.091956814298, 41.4985052802432], [-122.105519614791, 41.5009535069394], [-122.122020238021, 41.4992566534993], [-122.124143656101, 41.5072714625291], [-122.135222000477, 41.5077201048055], [-122.138933611527, 41.5017219684773], [-122.16120817447, 41.4783905674159], [-122.163186926082, 41.4712079823666], [-122.169407390462, 41.4628310381257], [-122.170794939193, 41.4564231816244], [-122.178048395773, 41.445742747472], [-122.185939438797, 41.442812855407], [-122.189972133538, 41.438828451527], [-122.195125243524, 41.4156790830144], [-122.193463212379, 41.4070606667733], [-122.198023079131, 41.4024265917686], [-122.220740952478, 41.4102346866303], [-122.229792763585, 41.3975723538448], [-122.256903948385, 41.3814377639282], [-122.275452899855, 41.3808714760427], [-122.293174412365, 41.3758608279441], [-122.302206944171, 41.374564802644], [-122.33800441724, 41.3738305066425], [-122.34652627529, 41.3670648786323], [-122.358373821807, 41.3690321785121], [-122.370140194532, 41.3736010460084], [-122.3794591339, 41.3747686352743], [-122.387303099249, 41.372189421263], [-122.392098216289, 41.3765070328472], [-122.404823273933, 41.3722498471324], [-122.41101326376, 41.3669761416916], [-122.411836771164, 41.3603371429937], [-122.419984665232, 41.3528930534955], [-122.433426980488, 41.3354759208809], [-122.450449718988, 41.3381031645989], [-122.468583536418, 41.3251450237483], [-122.470301578156, 41.3199329119505], [-122.478204962308, 41.3196762588832], [-122.487828149992, 41.316161390202], [-122.493548344527, 41.3117638535801], [-122.501458193549, 41.3095374163689], [-122.498710549263, 41.304084741621], [-122.498301722834, 41.2924538092126], [-122.507559196988, 41.2887555153451], [-122.512628845764, 41.2796070611035], [-122.511833424983, 41.2641641381111], [-122.512801672286, 41.2554575749515], [-122.506688771055, 41.2458470970609], [-122.515854623223, 41.239859683241], [-122.516861236668, 41.2363508066493], [-122.510840690191, 41.2266102904084], [-122.519239086258, 41.2189078020806], [-122.521699725136, 41.213562795218], [-122.513957855984, 41.2049277323813], [-122.508181914728, 41.203371846915], [-122.496484163593, 41.1961554156782], [-122.493516519449, 41.192345519189], [-122.498201313743, 41.184749733009], [-122.497805771224, 41.1803385707456], [-122.489306049213, 41.1760764187287], [-122.484475087092, 41.1778384902898], [-122.473318355738, 41.17642779517], [-122.467352311332, 41.1697929500608], [-122.45666325297, 41.1688872551558], [-122.444729545257, 41.1568631246039], [-122.449368538285, 41.1494987676879], [-122.447282989734, 41.1315896815484], [-122.447480600481, 41.1197494494182], [-122.4516571791, 41.1141933667528], [-122.450771607468, 41.1086221128341], [-122.456211153426, 41.0970003621185], [-122.468266960738, 41.0967863873254], [-122.475437394828, 41.0922115731272], [-122.493891426278, 41.0863577152427], [-122.504576824767, 41.0859402335273], [-122.511727873868, 41.088511071388], [-122.519937458059, 41.083748702089], [-122.527752909905, 41.0767140572528], [-122.535360940813, 41.0759747844649], [-122.538683726392, 41.0724388953886], [-122.536546949205, 41.0650480752089], [-122.527921425866, 41.0650130613169], [-122.524122930316, 41.0622769494802], [-122.520756623745, 41.0537366940477], [-122.526329069139, 41.045278456755], [-122.528504281443, 41.0385987345636], [-122.528221300411, 41.0297018954696], [-122.525840038347, 41.0206793208195], [-122.529119403811, 41.0110178365999], [-122.535106439855, 41.0040156444211], [-122.546577866532, 41.0053405240582], [-122.561939620006, 40.9935404431243], [-122.562864578615, 40.9888370872457], [-122.567864952746, 40.9851985443893], [-122.580144307756, 40.9830188538934], [-122.588546213445, 40.9852832251812], [-122.588610567932, 40.9798288830648], [-122.597252715834, 40.9760443487429], [-122.600681726121, 40.9707503340978], [-122.599915069303, 40.9647390723197], [-122.60616923413, 40.9576799942394], [-122.60219756105, 40.9408476183489], [-122.606193896205, 40.9372804789808], [-122.606496696558, 40.9304170693974], [-122.611621547594, 40.9212142764933], [-122.608766799548, 40.9140518916602], [-122.602624621086, 40.908851007463], [-122.59957845077, 40.8998409777066], [-122.608262819003, 40.8832455750731], [-122.625362221188, 40.8773747650079], [-122.625337140994, 40.8670869126486], [-122.633282233605, 40.8607839260244], [-122.637342852808, 40.8544322019827], [-122.638462345177, 40.8453235242102], [-122.654238383885, 40.8416423265641], [-122.656693707909, 40.8348977035138], [-122.662982628348, 40.8292092835522], [-122.664222885621, 40.8234383656927], [-122.655407750419, 40.8112371863786], [-122.656370800191, 40.8020962648412], [-122.659960394278, 40.8009627981723], [-122.660478938506, 40.7945816764783], [-122.657299092943, 40.7874148727544], [-122.664890818949, 40.781716645578], [-122.669613738926, 40.7728386657782], [-122.687310202973, 40.7644558046222], [-122.692151874521, 40.7608608221494], [-122.69988622259, 40.7591560203025], [-122.699324688418, 40.7557672697082], [-122.705042004365, 40.7497506617955], [-122.715844042547, 40.7472733268052], [-122.718659410938, 40.7398119524975], [-122.705304034123, 40.7251033101617], [-122.70879988141, 40.7192069113717], [-122.710195022959, 40.7109583475401], [-122.717111526648, 40.7086287057244], [-122.72113467687, 40.6956657691869], [-122.728994826535, 40.692450311014], [-122.741960564247, 40.6953538434353], [-122.751163134252, 40.6896083783833], [-122.74760889443, 40.6826818542066], [-122.741424567374, 40.678911468807], [-122.740128154843, 40.6659537795699], [-122.732485027592, 40.6625895183815], [-122.732249519315, 40.6567692195168], [-122.72590331287, 40.6511688027033], [-122.734178499486, 40.640062123218], [-122.73082000905, 40.6347976265686], [-122.714900780332, 40.6345747390371], [-122.708887078781, 40.6316723690274], [-122.710151490481, 40.6132251958772], [-122.705324395673, 40.6097715509401], [-122.704209296777, 40.6006155684651], [-122.700266610227, 40.5958891934265], [-122.697266549239, 40.5843633486005], [-122.691839448472, 40.5806192623933], [-122.692209959062, 40.575345463393], [-122.698006287483, 40.5694733549868], [-122.714068607104, 40.5712079287931], [-122.721406225744, 40.5753610073438], [-122.731646235167, 40.5709888369268], [-122.739961881001, 40.5647330506941], [-122.742998712134, 40.5538614002628], [-122.758011744374, 40.556510957608], [-122.76706338627, 40.5534799909695], [-122.778442640031, 40.5462005113402], [-122.784371476161, 40.5401756351353], [-122.781208642332, 40.5323587946047], [-122.791665708094, 40.5245762257991], [-122.792343282936, 40.5146989313431], [-122.802931728397, 40.5106768726748], [-122.818756852828, 40.5109595375205], [-122.827334165588, 40.5073509928631], [-122.844511624088, 40.5055014774159], [-122.850786555328, 40.5012664342551], [-122.845907782699, 40.4960797590516], [-122.845980163085, 40.4911968810016], [-122.85628012677, 40.4826243912736], [-122.870349513236, 40.4817085784819], [-122.882776967011, 40.474523496545], [-122.888359829287, 40.468519877165], [-122.893332332273, 40.4588441573876], [-122.893334361012, 40.4549972142757], [-122.900924624558, 40.4454181273759], [-122.916644173471, 40.4499036260326], [-122.929589461969, 40.4460292473288], [-122.929732443192, 40.4421328291422], [-122.936435233865, 40.4372041350083], [-122.93680778536, 40.4296725831992], [-122.944307932657, 40.4255231582099], [-122.956608964319, 40.4216319099218], [-122.959925615319, 40.4261377537223], [-122.972655811452, 40.42025839623], [-122.98156903395, 40.4185168610611], [-122.990119339232, 40.419391810174], [-122.99760246149, 40.4176444029261], [-122.996656868291, 40.4114009287586], [-122.998627094838, 40.4041754950992], [-122.995418480286, 40.3971301162046], [-123.004857922503, 40.3900847999392], [-123.012406044169, 40.3871066465347], [-123.017915600025, 40.3766550667307], [-123.015304564702, 40.3735381995273], [-123.021782114206, 40.3680189172203], [-123.029818653034, 40.3639809199117], [-123.03922985675, 40.3623744391992], [-123.042994595364, 40.3543367190386], [-123.043361670756, 40.3471515785402], [-123.051512977631, 40.3470581412369], [-123.055631898551, 40.3492995771441], [-123.064686756967, 40.3441414822416], [-123.063547237754, 40.3370787253106], [-123.067516434406, 40.3317969483091], [-123.061691248203, 40.3218177354502], [-123.061041004746, 40.3124932878804], [-123.066326831504, 40.3108551592659], [-123.067439128391, 40.3032775459399], [-123.064247469695, 40.2987791237888], [-123.064761900052, 40.285323147355], [-123.059582304396, 40.278023716699], [-123.050181441923, 40.2681852628434], [-123.035807483279, 40.2614784929288], [-123.030661110691, 40.2647549414328], [-123.017966837596, 40.2631358904159], [-123.000616573242, 40.2525330362874], [-122.984766115967, 40.2491129045876], [-122.97633847768, 40.24163804549], [-122.977271000117, 40.2347594128725], [-122.974230014642, 40.2330019049628], [-122.975808915248, 40.2235016199326], [-122.978323232521, 40.2204793931733], [-122.977133192535, 40.2065097393869], [-122.972211795612, 40.2034679093483], [-122.969923583026, 40.1975254757427], [-122.973403774791, 40.1919043026686], [-122.969001292295, 40.186267662535], [-122.978847954887, 40.1782963179286], [-122.982447264737, 40.1723234976805], [-122.985108316898, 40.1595931631588], [-122.983404230348, 40.1535609267905], [-122.98973428932749, 40.14497805018675]]]}}]}